[{"OBJECT_NAME":"HST","OBJECT_ID":"1990-037B","EPOCH":"2026-03-09T03:50:04.164288","MEAN_MOTION":15.29473555,"ECCENTRICITY":0.00018372,"INCLINATION":28.4717,"RA_OF_ASC_NODE":43.6133,"ARG_OF_PERICENTER":120.9992,"MEAN_ANOMALY":239.0785,"EPHEMERIS_TYPE":0,"CLASSIFICATION_TYPE":"U","NORAD_CAT_ID":20580,"ELEMENT_SET_NO":999,"REV_AT_EPOCH":77323,"BSTAR":0.0003002261,"MEAN_MOTION_DOT":9.063e-5,"MEAN_MOTION_DDOT":0},{"OBJECT_NAME":"STARLINK-34315","OBJECT_ID":"2025-120L","EPOCH":"2026-03-09T10:18:42.708672","MEAN_MOTION":15.30194155,"ECCENTRICITY":0.0001111,"INCLINATION":53.1577,"RA_OF_ASC_NODE":118.0886,"ARG_OF_PERICENTER":78.6685,"MEAN_ANOMALY":281.444,"EPHEMERIS_TYPE":0,"CLASSIFICATION_TYPE":"U","NORAD_CAT_ID":64266,"ELEMENT_SET_NO":999,"REV_AT_EPOCH":4381,"BSTAR":0.0009528304,"MEAN_MOTION_DOT":0.00027962,"MEAN_MOTION_DDOT":0}]
