HST                     
1 20580U 90037B   26068.15977042  .00009063  00000+0  30023-3 0  9999
2 20580  28.4717  43.6133 0001837 120.9992 239.0785 15.29473555773239
STARLINK-34315          
1 64266U 25120L   26068.42966098  .00027962  00000+0  95283-3 0  9995
2 64266  53.1577 118.0886 0001111  78.6685 281.4440 15.30194155 43813
